[{"OBJECT_NAME":"FLOCK 4Q-11","OBJECT_ID":"2023-174T","EPOCH":"2026-03-09T22:58:16.261824","MEAN_MOTION":15.45173932,"ECCENTRICITY":0.00077811,"INCLINATION":97.3894,"RA_OF_ASC_NODE":155.5718,"ARG_OF_PERICENTER":154.8881,"MEAN_ANOMALY":205.2748,"EPHEMERIS_TYPE":0,"CLASSIFICATION_TYPE":"U","NORAD_CAT_ID":58273,"ELEMENT_SET_NO":999,"REV_AT_EPOCH":13024,"BSTAR":0.00060116033,"MEAN_MOTION_DOT":0.00028516,"MEAN_MOTION_DDOT":0},{"OBJECT_NAME":"COLIBRI-S (RS67S)","OBJECT_ID":"2024-199M","EPOCH":"2026-03-09T22:39:12.638592","MEAN_MOTION":15.43465994,"ECCENTRICITY":0.00075412,"INCLINATION":97.3155,"RA_OF_ASC_NODE":302.1068,"ARG_OF_PERICENTER":284.1345,"MEAN_ANOMALY":75.9065,"EPHEMERIS_TYPE":0,"CLASSIFICATION_TYPE":"U","NORAD_CAT_ID":61746,"ELEMENT_SET_NO":999,"REV_AT_EPOCH":12208,"BSTAR":0.00055253762,"MEAN_MOTION_DOT":0.00024717,"MEAN_MOTION_DDOT":0}]
